OBJECT_NAME,OBJECT_ID,EPOCH,MEAN_MOTION,ECCENTRICITY,INCLINATION,RA_OF_ASC_NODE,ARG_OF_PERICENTER,MEAN_ANOMALY,EPHEMERIS_TYPE,CLASSIFICATION_TYPE,NORAD_CAT_ID,ELEMENT_SET_NO,REV_AT_EPOCH,BSTAR,MEAN_MOTION_DOT,MEAN_MOTION_DDOT
ORBCOMM FM06,1997-084G,2026-06-18T22:15:59.157792,14.47566139,.00009931,45.0145,44.3327,338.1027,36.1331,0,U,25118,999,49464,.28216146E-3,.903E-5,0
ORBCOMM FM04,1998-007C,2026-06-18T22:15:17.503488,14.35743955,.00414032,107.9626,173.0007,321.7698,38.0509,0,U,25159,999,47684,.25800415E-3,.621E-5,0
ORBCOMM FM19,1998-046C,2026-06-18T21:46:02.146656,14.39497912,.00045406,44.9925,235.3866,288.5167,241.4859,0,U,25415,999,45702,.19929066E-3,.484E-5,0
ORBCOMM FM20,1998-046D,2026-06-18T21:19:39.589824,14.38068084,.00023546,44.9933,243.4154,255.8652,104.1935,0,U,25416,999,45703,.16146174E-3,.351E-5,0
ORBCOMM FM27,1998-053G,2026-06-18T17:09:12.684960,14.39143376,.00011682,45.0041,328.0968,198.6150,161.4656,0,U,25481,999,45045,.25343336E-3,.649E-5,0
ORBCOMM FM32,1999-065C,2026-06-18T16:20:16.366272,14.37131111,.00044061,45.0135,166.1702,43.3180,316.8014,0,U,25982,999,38730,.14702531E-3,.299E-5,0
ORBCOMM FM109,2014-040A,2026-06-18T11:14:00.008160,14.58846001,.0001913,47.0030,85.4302,249.6241,110.4439,0,U,40086,999,63453,.10075E-3,.305E-5,0
ORBCOMM FM110,2015-081D,2026-06-18T19:35:07.927008,14.58882561,.00024812,47.0031,353.7412,86.1392,273.9778,0,U,41182,999,55786,.14086686E-3,.495E-5,0
ORBCOMM FM118,2015-081E,2026-06-18T22:03:04.577472,14.58881067,.00025271,47.0047,353.5866,37.2659,322.8402,0,U,41183,999,55798,.44523648E-3,.1935E-4,0
ORBCOMM FM112,2015-081F,2026-06-18T07:22:02.315136,14.58905836,.0003795,46.9989,264.9520,222.4136,137.6457,0,U,41184,999,55911,.12796E-3,.434E-5,0
ORBCOMM FM113,2015-081G,2026-06-18T16:40:09.418944,14.58859727,.00023348,47.0007,263.4964,229.6651,130.4031,0,U,41185,999,55915,.87552706E-4,.243E-5,0
ORBCOMM FM108,2015-081J,2026-06-18T00:58:24.502368,14.58870752,.00029879,47.0030,178.1625,224.9174,135.1471,0,U,41187,999,56020,.90814462E-4,.258E-5,0
ORBCOMM FM117,2015-081K,2026-06-18T10:00:28.528704,14.58865684,.0003526,46.9993,175.0163,229.3841,130.6739,0,U,41188,999,56030,.70744E-4,.163E-5,0
ORBCOMM FM116,2015-081L,2026-06-18T22:41:15.339552,14.58885488,.0000527,47.0018,262.3088,84.6605,275.4341,0,U,41189,999,55919,.12224063E-3,.407E-5,0
