ORBCOMM FM06            
1 25118U 97084G   26169.92776803  .00000903  00000+0  28216-3 0  9994
2 25118  45.0145  44.3327 0000993 338.1027  36.1331 14.47566139494646
ORBCOMM FM04            
1 25159U 98007C   26169.92728592  .00000621  00000+0  25800-3 0  9990
2 25159 107.9626 173.0007 0041403 321.7698  38.0509 14.35743955476841
ORBCOMM FM19            
1 25415U 98046C   26169.90696929  .00000484  00000+0  19929-3 0  9996
2 25415  44.9925 235.3866 0004540 288.5167 241.4859 14.39497912457025
ORBCOMM FM20            
1 25416U 98046D   26169.88865266  .00000351  00000+0  16146-3 0  9997
2 25416  44.9933 243.4154 0002354 255.8652 104.1935 14.38068084457036
ORBCOMM FM27            
1 25481U 98053G   26169.71473015  .00000649  00000+0  25343-3 0  9995
2 25481  45.0041 328.0968 0001168 198.6150 161.4656 14.39143376450456
ORBCOMM FM32            
1 25982U 99065C   26169.68074498  .00000299  00000+0  14703-3 0  9992
2 25982  45.0135 166.1702 0004406  43.3180 316.8014 14.37131111387309
ORBCOMM FM109           
1 40086U 14040A   26169.46805565  .00000305  00000+0  10075-3 0  9993
2 40086  47.0030  85.4302 0001913 249.6241 110.4439 14.58846001634538
ORBCOMM FM110           
1 41182U 15081D   26169.81606397  .00000495  00000+0  14087-3 0  9995
2 41182  47.0031 353.7412 0002481  86.1392 273.9778 14.58882561557864
ORBCOMM FM118           
1 41183U 15081E   26169.91880298  .00001935  00000+0  44524-3 0  9990
2 41183  47.0047 353.5866 0002527  37.2659 322.8402 14.58881067557988
ORBCOMM FM112           
1 41184U 15081F   26169.30697124  .00000434  00000+0  12796-3 0  9997
2 41184  46.9989 264.9520 0003795 222.4136 137.6457 14.58905836559110
ORBCOMM FM113           
1 41185U 15081G   26169.69455346  .00000243  00000+0  87553-4 0  9990
2 41185  47.0007 263.4964 0002334 229.6651 130.4031 14.58859727559159
ORBCOMM FM108           
1 41187U 15081J   26169.04056137  .00000258  00000+0  90814-4 0  9996
2 41187  47.0030 178.1625 0002987 224.9174 135.1471 14.58870752560204
ORBCOMM FM117           
1 41188U 15081K   26169.41699686  .00000163  00000+0  70744-4 0  9995
2 41188  46.9993 175.0163 0003526 229.3841 130.6739 14.58865684560300
ORBCOMM FM116           
1 41189U 15081L   26169.94531643  .00000407  00000+0  12224-3 0  9991
2 41189  47.0018 262.3088 0000527  84.6605 275.4341 14.58885488559191
